{"type": "FeatureCollection", "features": [ {"type": "Feature", "properties": {"norad_id": 30081, "name": "FENGYUN 1C DEB", "group": "fengyun-1c-debris", "lat": 80.96478756660125, "lon": -106.6795984859774, "alt_km": 933.2526047725623, "timestamp": "2025-12-22T04:03:39.442802+00:00", "meta": {"OBJECT_NAME": "FENGYUN 1C DEB", "OBJECT_ID": "1999-025QJ", "EPOCH": "2025-12-21T18:13:41.442816", "MEAN_MOTION": 13.98290739, "ECCENTRICITY": 0.0075739, "INCLINATION": 98.9236, "RA_OF_ASC_NODE": 351.7848, "ARG_OF_PERICENTER": 314.1938, "MEAN_ANOMALY": 235.3793, "EPHEMERIS_TYPE": 0, "CLASSIFICATION_TYPE": "U", "NORAD_CAT_ID": 30081, "ELEMENT_SET_NO": 999, "REV_AT_EPOCH": 96480, "BSTAR": 0.00034256, "MEAN_MOTION_DOT": 4.57e-06, "MEAN_MOTION_DDOT": 0}, "tle": {"line1": "1 30081U 99025QJ  25355.75950744  .00000457  00000+0  34256-3 0  9996", "line2": "2 30081  98.9236 351.7848 0075739 314.1938 235.3793 13.98290739964807"}}, "geometry": {"type": "Point", "coordinates": [-106.6795984859774, 80.96478756660125]}}, {"type": "Feature", "properties": {"norad_id": 30082, "name": "FENGYUN 1C DEB", "group": "fengyun-1c-debris", "lat": -17.905491271336746, "lon": -71.70831193789161, "alt_km": 567.6316706121261, "timestamp": "2025-12-22T04:03:39.442813+00:00", "meta": {"OBJECT_NAME": "FENGYUN 1C DEB", "OBJECT_ID": "1999-025QK", "EPOCH": "2025-12-21T20:13:06.532608", "MEAN_MOTION": 15.15473754, "ECCENTRICITY": 0.0070263, "INCLINATION": 98.8194, "RA_OF_ASC_NODE": 285.0373, "ARG_OF_PERICENTER": 136.0286, "MEAN_ANOMALY": 224.6563, "EPHEMERIS_TYPE": 0, "CLASSIFICATION_TYPE": "U", "NORAD_CAT_ID": 30082, "ELEMENT_SET_NO": 999, "REV_AT_EPOCH": 1431, "BSTAR": 0.0010424, "MEAN_MOTION_DOT": 0.00020954, "MEAN_MOTION_DDOT": 0}, "tle": {"line1": "1 30082U 99025QK  25355.84243672  .00020954  00000+0  10424-2 0  9996", "line2": "2 30082  98.8194 285.0373 0070263 136.0286 224.6563 15.15473754 14315"}}, "geometry": {"type": "Point", "coordinates": [-71.70831193789161, -17.905491271336746]}}, {"type": "Feature", "properties": {"norad_id": 30086, "name": "FENGYUN 1C DEB", "group": "fengyun-1c-debris", "lat": 65.63846264823601, "lon": 9.395313401038601, "alt_km": 840.1301186297387, "timestamp": "2025-12-22T04:03:39.442823+00:00", "meta": {"OBJECT_NAME": "FENGYUN 1C DEB", "OBJECT_ID": "1999-025QP", "EPOCH": "2025-12-21T02:22:39.254880", "MEAN_MOTION": 14.03841795, "ECCENTRICITY": 0.00619382, "INCLINATION": 98.9097, "RA_OF_ASC_NODE": 28.6157, "ARG_OF_PERICENTER": 111.476, "MEAN_ANOMALY": 310.9361, "EPHEMERIS_TYPE": 0, "CLASSIFICATION_TYPE": "U", "NORAD_CAT_ID": 30086, "ELEMENT_SET_NO": 999, "REV_AT_EPOCH": 96813, "BSTAR": 0.00034647797, "MEAN_MOTION_DOT": 5.13e-06, "MEAN_MOTION_DDOT": 0}, "tle": {"line1": "1 30086U 99025QP  25355.09906545  .00000513  00000+0  34648-3 0  9996", "line2": "2 30086  98.9097  28.6157 0061938 111.4760 310.9361 14.03841795968139"}}, "geometry": {"type": "Point", "coordinates": [9.395313401038601, 65.63846264823601]}}, {"type": "Feature", "properties": {"norad_id": 30087, "name": "FENGYUN 1C DEB", "group": "fengyun-1c-debris", "lat": -28.350327338434717, "lon": 32.717014130338384, "alt_km": 862.8585168240279, "timestamp": "2025-12-22T04:03:39.442833+00:00", "meta": {"OBJECT_NAME": "FENGYUN 1C DEB", "OBJECT_ID": "1999-025QQ", "EPOCH": "2025-12-21T20:39:14.663232", "MEAN_MOTION": 14.3571896, "ECCENTRICITY": 0.0230463, "INCLINATION": 98.3791, "RA_OF_ASC_NODE": 27.8554, "ARG_OF_PERICENTER": 94.2607, "MEAN_ANOMALY": 85.2164, "EPHEMERIS_TYPE": 0, "CLASSIFICATION_TYPE": "U", "NORAD_CAT_ID": 30087, "ELEMENT_SET_NO": 999, "REV_AT_EPOCH": 98826, "BSTAR": 0.00019003, "MEAN_MOTION_DOT": 6.94e-06, "MEAN_MOTION_DDOT": 0}, "tle": {"line1": "1 30087U 99025QQ  25355.86058638  .00000694  00000+0  19003-3 0  9991", "line2": "2 30087  98.3791  27.8554 0230463  94.2607  85.2164 14.35718960988267"}}, "geometry": {"type": "Point", "coordinates": [32.717014130338384, -28.350327338434717]}}, {"type": "Feature", "properties": {"norad_id": 30088, "name": "FENGYUN 1C DEB", "group": "fengyun-1c-debris", "lat": -58.564922199889736, "lon": 146.25403186408056, "alt_km": 643.9788743835088, "timestamp": "2025-12-22T04:03:39.442843+00:00", "meta": {"OBJECT_NAME": "FENGYUN 1C DEB", "OBJECT_ID": "1999-025QR", "EPOCH": "2025-12-21T17:44:13.818912", "MEAN_MOTION": 14.35929894, "ECCENTRICITY": 0.0201003, "INCLINATION": 98.355, "RA_OF_ASC_NODE": 339.7486, "ARG_OF_PERICENTER": 220.4261, "MEAN_ANOMALY": 315.9542, "EPHEMERIS_TYPE": 0, "CLASSIFICATION_TYPE": "U", "NORAD_CAT_ID": 30088, "ELEMENT_SET_NO": 999, "REV_AT_EPOCH": 98801, "BSTAR": 0.00021779, "MEAN_MOTION_DOT": 7.45e-06, "MEAN_MOTION_DDOT": 0}, "tle": {"line1": "1 30088U 99025QR  25355.73904883  .00000745  00000+0  21779-3 0  9990", "line2": "2 30088  98.3550 339.7486 0201003 220.4261 315.9542 14.35929894988013"}}, "geometry": {"type": "Point", "coordinates": [146.25403186408056, -58.564922199889736]}}, {"type": "Feature", "properties": {"norad_id": 30089, "name": "FENGYUN 1C DEB", "group": "fengyun-1c-debris", "lat": 76.60167314076217, "lon": -139.37335435205608, "alt_km": 794.330629167298, "timestamp": "2025-12-22T04:03:39.442853+00:00", "meta": {"OBJECT_NAME": "FENGYUN 1C DEB", "OBJECT_ID": "1999-025QS", "EPOCH": "2025-12-21T17:55:11.665920", "MEAN_MOTION": 14.30315118, "ECCENTRICITY": 0.0073695, "INCLINATION": 98.9037, "RA_OF_ASC_NODE": 261.35, "ARG_OF_PERICENTER": 183.5315, "MEAN_ANOMALY": 242.7614, "EPHEMERIS_TYPE": 0, "CLASSIFICATION_TYPE": "U", "NORAD_CAT_ID": 30089, "ELEMENT_SET_NO": 999, "REV_AT_EPOCH": 98608, "BSTAR": 0.0001731, "MEAN_MOTION_DOT": 4.16e-06, "MEAN_MOTION_DDOT": 0}, "tle": {"line1": "1 30089U 99025QS  25355.74666280  .00000416  00000+0  17310-3 0  9999", "line2": "2 30089  98.9037 261.3500 0073695 183.5315 242.7614 14.30315118986085"}}, "geometry": {"type": "Point", "coordinates": [-139.37335435205608, 76.60167314076217]}}, {"type": "Feature", "properties": {"norad_id": 30090, "name": "FENGYUN 1C DEB", "group": "fengyun-1c-debris", "lat": -66.25572639837227, "lon": -167.85506734294952, "alt_km": 839.2576871588244, "timestamp": "2025-12-22T04:03:39.442863+00:00", "meta": {"OBJECT_NAME": "FENGYUN 1C DEB", "OBJECT_ID": "1999-025QT", "EPOCH": "2025-12-21T05:40:23.816928", "MEAN_MOTION": 14.29044159, "ECCENTRICITY": 0.005817, "INCLINATION": 99.4092, "RA_OF_ASC_NODE": 168.9937, "ARG_OF_PERICENTER": 87.6529, "MEAN_ANOMALY": 88.3168, "EPHEMERIS_TYPE": 0, "CLASSIFICATION_TYPE": "U", "NORAD_CAT_ID": 30090, "ELEMENT_SET_NO": 999, "REV_AT_EPOCH": 98391, "BSTAR": 0.00027553, "MEAN_MOTION_DOT": 6.6e-06, "MEAN_MOTION_DDOT": 0}, "tle": {"line1": "1 30090U 99025QT  25355.23638677  .00000660  00000+0  27553-3 0  9995", "line2": "2 30090  99.4092 168.9937 0058170  87.6529  88.3168 14.29044159983911"}}, "geometry": {"type": "Point", "coordinates": [-167.85506734294952, -66.25572639837227]}}, {"type": "Feature", "properties": {"norad_id": 30092, "name": "FENGYUN 1C DEB", "group": "fengyun-1c-debris", "lat": -53.608957142811036, "lon": -16.501035096894608, "alt_km": 710.4158460245208, "timestamp": "2025-12-22T04:03:39.442874+00:00", "meta": {"OBJECT_NAME": "FENGYUN 1C DEB", "OBJECT_ID": "1999-025QV", "EPOCH": "2025-12-21T10:35:03.805728", "MEAN_MOTION": 14.39167518, "ECCENTRICITY": 0.00827402, "INCLINATION": 98.923, "RA_OF_ASC_NODE": 175.0496, "ARG_OF_PERICENTER": 224.5488, "MEAN_ANOMALY": 199.1445, "EPHEMERIS_TYPE": 0, "CLASSIFICATION_TYPE": "U", "NORAD_CAT_ID": 30092, "ELEMENT_SET_NO": 999, "REV_AT_EPOCH": 98874, "BSTAR": 0.00044266249, "MEAN_MOTION_DOT": 1.377e-05, "MEAN_MOTION_DDOT": 0}, "tle": {"line1": "1 30092U 99025QV  25355.44101627  .00001377  00000+0  44266-3 0  9996", "line2": "2 30092  98.9230 175.0496 0082740 224.5488 199.1445 14.39167518988747"}}, "geometry": {"type": "Point", "coordinates": [-16.501035096894608, -53.608957142811036]}}, {"type": "Feature", "properties": {"norad_id": 30093, "name": "FENGYUN 1C DEB", "group": "fengyun-1c-debris", "lat": -60.48941867707338, "lon": 35.12314362423209, "alt_km": 734.2849430878969, "timestamp": "2025-12-22T04:03:39.442883+00:00", "meta": {"OBJECT_NAME": "FENGYUN 1C DEB", "OBJECT_ID": "1999-025QW", "EPOCH": "2025-12-21T15:33:03.184992", "MEAN_MOTION": 14.43739142, "ECCENTRICITY": 0.0069632, "INCLINATION": 98.8675, "RA_OF_ASC_NODE": 230.591, "ARG_OF_PERICENTER": 311.0903, "MEAN_ANOMALY": 103.6846, "EPHEMERIS_TYPE": 0, "CLASSIFICATION_TYPE": "U", "NORAD_CAT_ID": 30093, "ELEMENT_SET_NO": 999, "REV_AT_EPOCH": 98932, "BSTAR": 0.0007345, "MEAN_MOTION_DOT": 2.522e-05, "MEAN_MOTION_DDOT": 0}, "tle": {"line1": "1 30093U 99025QW  25355.64795353  .00002522  00000+0  73450-3 0  9994", "line2": "2 30093  98.8675 230.5910 0069632 311.0903 103.6846 14.43739142989320"}}, "geometry": {"type": "Point", "coordinates": [35.12314362423209, -60.48941867707338]}}, {"type": "Feature", "properties": {"norad_id": 30095, "name": "FENGYUN 1C DEB", "group": "fengyun-1c-debris", "lat": -41.550670312332656, "lon": 90.4441122303654, "alt_km": 608.1755413039355, "timestamp": "2025-12-22T04:03:39.442894+00:00", "meta": {"OBJECT_NAME": "FENGYUN 1C DEB", "OBJECT_ID": "1999-025QY", "EPOCH": "2025-12-21T12:27:58.199904", "MEAN_MOTION": 14.82290874, "ECCENTRICITY": 0.0164233, "INCLINATION": 99.2214, "RA_OF_ASC_NODE": 277.9744, "ARG_OF_PERICENTER": 304.8576, "MEAN_ANOMALY": 53.7283, "EPHEMERIS_TYPE": 0, "CLASSIFICATION_TYPE": "U", "NORAD_CAT_ID": 30095, "ELEMENT_SET_NO": 999, "REV_AT_EPOCH": 99465, "BSTAR": 0.001748, "MEAN_MOTION_DOT": 0.0001764, "MEAN_MOTION_DDOT": 0}, "tle": {"line1": "1 30095U 99025QY  25355.51942361  .00017640  00000+0  17480-2 0  9992", "line2": "2 30095  99.2214 277.9744 0164233 304.8576  53.7283 14.82290874994654"}}, "geometry": {"type": "Point", "coordinates": [90.4441122303654, -41.550670312332656]}}]}